[{"OBJECT_NAME":"KUIPER-00146","OBJECT_ID":"2025-228W","EPOCH":"2026-03-06T05:51:45.772992","MEAN_MOTION":14.7647205,"ECCENTRICITY":0.00011302,"INCLINATION":51.9042,"RA_OF_ASC_NODE":358.165,"ARG_OF_PERICENTER":105.0094,"MEAN_ANOMALY":255.0993,"EPHEMERIS_TYPE":0,"CLASSIFICATION_TYPE":"U","NORAD_CAT_ID":65967,"ELEMENT_SET_NO":999,"REV_AT_EPOCH":2296,"BSTAR":0.00062591162,"MEAN_MOTION_DOT":4.185e-5,"MEAN_MOTION_DDOT":0},{"OBJECT_NAME":"KUIPER-00149","OBJECT_ID":"2025-228X","EPOCH":"2026-03-06T04:10:52.812768","MEAN_MOTION":14.79960286,"ECCENTRICITY":0.0001793,"INCLINATION":51.9043,"RA_OF_ASC_NODE":353.6486,"ARG_OF_PERICENTER":70.0984,"MEAN_ANOMALY":290.0172,"EPHEMERIS_TYPE":0,"CLASSIFICATION_TYPE":"U","NORAD_CAT_ID":65968,"ELEMENT_SET_NO":999,"REV_AT_EPOCH":2302,"BSTAR":-0.00022579151,"MEAN_MOTION_DOT":-1.943e-5,"MEAN_MOTION_DDOT":0},{"OBJECT_NAME":"KUIPER-00154","OBJECT_ID":"2025-228Y","EPOCH":"2026-03-06T11:32:20.899680","MEAN_MOTION":14.79941691,"ECCENTRICITY":6.027e-5,"INCLINATION":51.9027,"RA_OF_ASC_NODE":349.7966,"ARG_OF_PERICENTER":103.5078,"MEAN_ANOMALY":256.5952,"EPHEMERIS_TYPE":0,"CLASSIFICATION_TYPE":"U","NORAD_CAT_ID":65969,"ELEMENT_SET_NO":999,"REV_AT_EPOCH":2310,"BSTAR":0.00087168957,"MEAN_MOTION_DOT":6.432e-5,"MEAN_MOTION_DDOT":0},{"OBJECT_NAME":"KUIPER-00157","OBJECT_ID":"2025-228Z","EPOCH":"2026-03-06T00:07:45.920640","MEAN_MOTION":14.79925909,"ECCENTRICITY":0.00012823,"INCLINATION":51.9041,"RA_OF_ASC_NODE":354.5124,"ARG_OF_PERICENTER":44.5406,"MEAN_ANOMALY":315.566,"EPHEMERIS_TYPE":0,"CLASSIFICATION_TYPE":"U","NORAD_CAT_ID":65970,"ELEMENT_SET_NO":999,"REV_AT_EPOCH":2299,"BSTAR":-7.9783281e-5,"MEAN_MOTION_DOT":-8.29e-6,"MEAN_MOTION_DDOT":0},{"OBJECT_NAME":"KUIPER-00144","OBJECT_ID":"2025-301A","EPOCH":"2026-03-06T08:10:04.780704","MEAN_MOTION":15.38261269,"ECCENTRICITY":0.00076764,"INCLINATION":51.868,"RA_OF_ASC_NODE":81.279,"ARG_OF_PERICENTER":21.5546,"MEAN_ANOMALY":338.5763,"EPHEMERIS_TYPE":0,"CLASSIFICATION_TYPE":"U","NORAD_CAT_ID":67133,"ELEMENT_SET_NO":999,"REV_AT_EPOCH":1322,"BSTAR":0.0011440598,"MEAN_MOTION_DOT":0.00043706,"MEAN_MOTION_DDOT":0},{"OBJECT_NAME":"KUIPER-00164","OBJECT_ID":"2025-301B","EPOCH":"2026-03-06T14:00:01.000224","MEAN_MOTION":15.15561547,"ECCENTRICITY":0.00046432,"INCLINATION":51.8791,"RA_OF_ASC_NODE":81.7497,"ARG_OF_PERICENTER":54.1597,"MEAN_ANOMALY":80.8915,"EPHEMERIS_TYPE":0,"CLASSIFICATION_TYPE":"U","NORAD_CAT_ID":67134,"ELEMENT_SET_NO":999,"REV_AT_EPOCH":576,"BSTAR":-0.096601688,"MEAN_MOTION_DOT":-0.01676914,"MEAN_MOTION_DDOT":0},{"OBJECT_NAME":"KUIPER-00175","OBJECT_ID":"2025-301C","EPOCH":"2026-03-06T10:54:32.149728","MEAN_MOTION":15.30836302,"ECCENTRICITY":0.0001993,"INCLINATION":51.877,"RA_OF_ASC_NODE":80.5755,"ARG_OF_PERICENTER":36.1438,"MEAN_ANOMALY":323.9681,"EPHEMERIS_TYPE":0,"CLASSIFICATION_TYPE":"U","NORAD_CAT_ID":67135,"ELEMENT_SET_NO":999,"REV_AT_EPOCH":1331,"BSTAR":0.0008127066,"MEAN_MOTION_DOT":0.0002429,"MEAN_MOTION_DDOT":0},{"OBJECT_NAME":"KUIPER-00179","OBJECT_ID":"2025-301D","EPOCH":"2026-03-06T14:00:01.000224","MEAN_MOTION":15.12170281,"ECCENTRICITY":0.0002656,"INCLINATION":51.883,"RA_OF_ASC_NODE":81.2131,"ARG_OF_PERICENTER":49.7484,"MEAN_ANOMALY":52.0945,"EPHEMERIS_TYPE":0,"CLASSIFICATION_TYPE":"U","NORAD_CAT_ID":67136,"ELEMENT_SET_NO":999,"REV_AT_EPOCH":585,"BSTAR":-0.11187425,"MEAN_MOTION_DOT":-0.01781214,"MEAN_MOTION_DDOT":0},{"OBJECT_NAME":"KUIPER-00181","OBJECT_ID":"2025-301E","EPOCH":"2026-03-06T14:00:01.000224","MEAN_MOTION":14.7639988,"ECCENTRICITY":0.00019326,"INCLINATION":51.9008,"RA_OF_ASC_NODE":90.7604,"ARG_OF_PERICENTER":83.576,"MEAN_ANOMALY":168.2733,"EPHEMERIS_TYPE":0,"CLASSIFICATION_TYPE":"U","NORAD_CAT_ID":67137,"ELEMENT_SET_NO":999,"REV_AT_EPOCH":551,"BSTAR":0.0029314745,"MEAN_MOTION_DOT":0.00020407,"MEAN_MOTION_DDOT":0},{"OBJECT_NAME":"KUIPER-00183","OBJECT_ID":"2025-301F","EPOCH":"2026-03-06T14:00:01.000224","MEAN_MOTION":15.29970602,"ECCENTRICITY":0.00157117,"INCLINATION":51.8658,"RA_OF_ASC_NODE":80.9514,"ARG_OF_PERICENTER":41.9119,"MEAN_ANOMALY":121.8529,"EPHEMERIS_TYPE":0,"CLASSIFICATION_TYPE":"U","NORAD_CAT_ID":67138,"ELEMENT_SET_NO":999,"REV_AT_EPOCH":570,"BSTAR":-0.052495277,"MEAN_MOTION_DOT":-0.0141047,"MEAN_MOTION_DDOT":0},{"OBJECT_NAME":"KUIPER-00184","OBJECT_ID":"2025-301G","EPOCH":"2026-03-06T14:00:01.000224","MEAN_MOTION":15.35100085,"ECCENTRICITY":0.00118661,"INCLINATION":51.8618,"RA_OF_ASC_NODE":80.6277,"ARG_OF_PERICENTER":41.6929,"MEAN_ANOMALY":297.1341,"EPHEMERIS_TYPE":0,"CLASSIFICATION_TYPE":"U","NORAD_CAT_ID":67139,"ELEMENT_SET_NO":999,"REV_AT_EPOCH":585,"BSTAR":-0.033607744,"MEAN_MOTION_DOT":-0.01070947,"MEAN_MOTION_DDOT":0},{"OBJECT_NAME":"KUIPER-00186","OBJECT_ID":"2025-301H","EPOCH":"2026-03-06T11:19:06.957984","MEAN_MOTION":14.79988664,"ECCENTRICITY":6.911e-5,"INCLINATION":51.9013,"RA_OF_ASC_NODE":92.341,"ARG_OF_PERICENTER":109.1062,"MEAN_ANOMALY":250.9975,"EPHEMERIS_TYPE":0,"CLASSIFICATION_TYPE":"U","NORAD_CAT_ID":67140,"ELEMENT_SET_NO":999,"REV_AT_EPOCH":1308,"BSTAR":0.00085846705,"MEAN_MOTION_DOT":6.338e-5,"MEAN_MOTION_DDOT":0},{"OBJECT_NAME":"KUIPER-00187","OBJECT_ID":"2025-301J","EPOCH":"2026-03-06T11:15:08.107776","MEAN_MOTION":14.79937969,"ECCENTRICITY":6.789e-5,"INCLINATION":51.9021,"RA_OF_ASC_NODE":94.8656,"ARG_OF_PERICENTER":100.7932,"MEAN_ANOMALY":259.3107,"EPHEMERIS_TYPE":0,"CLASSIFICATION_TYPE":"U","NORAD_CAT_ID":67141,"ELEMENT_SET_NO":999,"REV_AT_EPOCH":1304,"BSTAR":-2.953385e-6,"MEAN_MOTION_DOT":-2.44e-6,"MEAN_MOTION_DDOT":0},{"OBJECT_NAME":"KUIPER-00188","OBJECT_ID":"2025-301K","EPOCH":"2026-03-06T10:16:39.031392","MEAN_MOTION":15.37904934,"ECCENTRICITY":0.00104776,"INCLINATION":51.869,"RA_OF_ASC_NODE":81.1101,"ARG_OF_PERICENTER":32.344,"MEAN_ANOMALY":327.8188,"EPHEMERIS_TYPE":0,"CLASSIFICATION_TYPE":"U","NORAD_CAT_ID":67142,"ELEMENT_SET_NO":999,"REV_AT_EPOCH":1323,"BSTAR":0.0010167426,"MEAN_MOTION_DOT":0.00038351,"MEAN_MOTION_DDOT":0},{"OBJECT_NAME":"KUIPER-00191","OBJECT_ID":"2025-301L","EPOCH":"2026-03-06T14:00:01.000224","MEAN_MOTION":14.82928656,"ECCENTRICITY":0.00045307,"INCLINATION":51.8993,"RA_OF_ASC_NODE":86.9373,"ARG_OF_PERICENTER":52.193,"MEAN_ANOMALY":303.9461,"EPHEMERIS_TYPE":0,"CLASSIFICATION_TYPE":"U","NORAD_CAT_ID":67143,"ELEMENT_SET_NO":999,"REV_AT_EPOCH":508,"BSTAR":-0.00077178798,"MEAN_MOTION_DOT":-6.545e-5,"MEAN_MOTION_DDOT":0},{"OBJECT_NAME":"KUIPER-00196","OBJECT_ID":"2025-301M","EPOCH":"2026-03-06T10:45:56.197440","MEAN_MOTION":15.3866322,"ECCENTRICITY":0.00038797,"INCLINATION":51.8703,"RA_OF_ASC_NODE":80.5243,"ARG_OF_PERICENTER":11.454,"MEAN_ANOMALY":348.6535,"EPHEMERIS_TYPE":0,"CLASSIFICATION_TYPE":"U","NORAD_CAT_ID":67144,"ELEMENT_SET_NO":999,"REV_AT_EPOCH":1324,"BSTAR":0.0010119049,"MEAN_MOTION_DOT":0.00039075,"MEAN_MOTION_DDOT":0}]
