KUIPER-00146            
1 65967U 25228W   26065.24427978  .00004185  00000+0  62591-3 0  9997
2 65967  51.9042 358.1650 0001130 105.0094 255.0993 14.76472050 22966
KUIPER-00149            
1 65968U 25228X   26065.17422237 -.00001943  00000+0 -22579-3 0  9996
2 65968  51.9043 353.6486 0001793  70.0984 290.0172 14.79960286 23021
KUIPER-00154            
1 65969U 25228Y   26065.48079745  .00006432  00000+0  87169-3 0  9995
2 65969  51.9027 349.7966 0000602 103.5078 256.5952 14.79941691 23108
KUIPER-00157            
1 65970U 25228Z   26065.00539260 -.00000829  00000+0 -79783-4 0  9998
2 65970  51.9041 354.5124 0001282  44.5406 315.5660 14.79925909 22992
KUIPER-00144            
1 67133U 25301A   26065.34033311  .00043706  00000+0  11441-2 0  9990
2 67133  51.8680  81.2790 0007676  21.5546 338.5763 15.38261269 13222
KUIPER-00164            
1 67134U 25301B   26065.58334491 -.01676914  00000+0 -96602-1 0  9997
2 67134  51.8791  81.7497 0004643  54.1597  80.8915 15.15561547  5767
KUIPER-00175            
1 67135U 25301C   26065.45453877  .00024290  00000+0  81271-3 0  9993
2 67135  51.8770  80.5755 0001993  36.1438 323.9681 15.30836302 13310
KUIPER-00179            
1 67136U 25301D   26065.58334491 -.01781214  00000+0 -11187+0 0  9992
2 67136  51.8830  81.2131 0002656  49.7484  52.0945 15.12170281  5852
KUIPER-00181            
1 67137U 25301E   26065.58334491  .00020407  00000+0  29315-2 0  9995
2 67137  51.9008  90.7604 0001932  83.5760 168.2733 14.76399880  5515
KUIPER-00183            
1 67138U 25301F   26065.58334491 -.01410470  00000+0 -52495-1 0  9996
2 67138  51.8658  80.9514 0015711  41.9119 121.8529 15.29970602  5708
KUIPER-00184            
1 67139U 25301G   26065.58334491 -.01070947  00000+0 -33608-1 0  9993
2 67139  51.8618  80.6277 0011866  41.6929 297.1341 15.35100085  5853
KUIPER-00186            
1 67140U 25301H   26065.47160831  .00006338  00000+0  85847-3 0  9992
2 67140  51.9013  92.3410 0000691 109.1062 250.9975 14.79988664 13084
KUIPER-00187            
1 67141U 25301J   26065.46884384 -.00000244  00000+0 -29534-5 0  9993
2 67141  51.9021  94.8656 0000678 100.7932 259.3107 14.79937969 13049
KUIPER-00188            
1 67142U 25301K   26065.42822953  .00038351  00000+0  10167-2 0  9991
2 67142  51.8690  81.1101 0010477  32.3440 327.8188 15.37904934 13239
KUIPER-00191            
1 67143U 25301L   26065.58334491 -.00006545  00000+0 -77179-3 0  9993
2 67143  51.8993  86.9373 0004530  52.1930 303.9461 14.82928656  5086
KUIPER-00196            
1 67144U 25301M   26065.44856710  .00039075  00000+0  10119-2 0  9994
2 67144  51.8703  80.5243 0003879  11.4540 348.6535 15.38663220 13242
